#aV2020  5  8  0  0  0.00000000     288 DD+AD WGS84 FIT  NGA
## 2104 432000.00000000   300.00000000 58977 0.0000000000000
+   32     1  2  3  4  5  6  7  8  9 10 11 12 13 14 15 16 17
+         18 19 20 21 22 23 24 25 26 27 28 29 30 31 32  0  0
+          0  0  0  0  0  0  0  0  0  0  0  0  0  0  0  0  0
+          0  0  0  0  0  0  0  0  0  0  0  0  0  0  0  0  0
+          0  0  0  0  0  0  0  0  0  0  0  0  0  0  0  0  0
++         2  2  2  2  2  2  2  2  2  2  2  2  2  2  2  2  2
++         2  2  2  2  2  2  2  2  2  2  2  2  2  2  2  0  0
++         0  0  0  0  0  0  0  0  0  0  0  0  0  0  0  0  0
++         0  0  0  0  0  0  0  0  0  0  0  0  0  0  0  0  0
++         0  0  0  0  0  0  0  0  0  0  0  0  0  0  0  0  0
%c cc cc ccc ccc cccc cccc cccc cccc ccccc ccccc ccccc ccccc
%c cc cc ccc ccc cccc cccc cccc cccc ccccc ccccc ccccc ccccc
%f  0.0000000  0.000000000  0.00000000000  0.000000000000000
%f  0.0000000  0.000000000  0.00000000000  0.000000000000000
%i    0    0    0    0      0      0      0      0         0
%i    0    0    0    0      0      0      0      0         0
/*      NGA, ST. LOUIS,MO.                                  
/*   EPHEMERIS COMPUTED FROM 2 DAYS OF DATA                 
/*   EPOCHA v5 SMOOTHER                                     
/*   G1762 IERS2010 SATAF SATAPC                            
*  2020  5  8 11 30  0.00000000
P  1 -19574.786315 -14739.285645 -10882.668901   -375.903463                    
V  1  13110.844502   2975.479454 -27852.299712     -0.074981                    
P  2  -1948.655826  15533.012791  22101.309367   -452.447250                    
V  2 -25656.583788  -6840.988680   2565.741610     -0.062446                    
P  3 -12536.399906 -19857.000622  12448.317787   -169.138321                    
V  3   -840.074124 -15977.010085 -26108.350224     -0.118814                    
P  4 -13300.990749  -8502.094945  21375.551129    -86.572540                    
V  4  20775.040413 -17429.625645   5968.667641     -0.050365                    
P  5   1041.913164  25618.909787   6385.476680    -12.280140                    
V  5  -4884.359773  -7455.487783  30268.587624     -0.007154                    
P  6 -13701.483824   9848.757286  20576.460037   -267.689845                    
V  6 -24243.843567  -9255.541044 -11700.040456     -0.070266                    
P  7 -25664.919778  -5048.097822  -5620.346793   -276.342933                    
V  7  -6109.976508  -4956.128229  30214.467124     -0.087009                    
P  8  -2690.517230 -16481.941596 -20576.425486    -33.270161                    
V  8  20246.512022 -16658.511754  10937.851618     -0.012533                    
P  9 -20529.496590   2411.172277  16640.312887   -213.235951                    
V  9  14564.985454 -15582.296435  20149.639244     -0.073949                    
P 10  12729.296380 -10187.678267 -20831.234137   -334.545794                    
V 10   5934.245568  26041.329366  -9299.544682     -0.116900                    
P 11 -11055.185367 -14135.514815 -19992.878791   -283.220486                    
V 11  24198.433947  -4716.761618 -10614.363706      0.107264                    
P 12  10360.259583  21533.714036  11528.096513    120.344033                    
V 12   -110.013632  15036.954130 -27269.082056     -0.043810                    
P 13  -6418.723952  18826.492189 -17674.045795      8.317633                    
V 13 -19401.038810  10955.280065  18929.667146      0.030364                    
P 14  17707.487555 -18643.779157   6593.634662    -14.408950                    
V 14   8085.431453  -2437.172669 -30377.307447      0.025672                    
P 15   5620.248843  16326.465013 -20408.862050   -232.646776                    
V 15 -18387.054464  17631.017740   9563.736821      0.025956                    
P 16    559.972774 -25865.851506   4619.770809   -155.706122                    
V 16   3206.375589   5917.347451  31713.323013     -0.044950                    
P 17 -21914.271634  14666.847323  -2532.308264    261.376573                    
V 17   1660.546057  -3967.235444 -32080.966012      0.061090                    
P 18  25436.472706   5831.419321  -5068.503567    182.891594                    
V 18   5081.350956   4715.023195  30929.928289      0.124283                    
P 19 -19584.447600  17278.297482   4484.616147   -161.605100                    
V 19  -6203.004267   1703.603672 -31559.852312      0.051112                    
P 20  16755.952154   1995.536314 -20630.151350    527.725844                    
V 20   7393.636343  25025.343837   8240.444605     -0.000432                    
P 21  25586.080954   3487.621241  -4859.982497     -4.136807                    
V 21   6032.371037   5102.956048  30942.254456      0.049959                    
P 22  -9923.357095 -24426.012379   3982.067406   -782.944467                    
V 22   2155.809839  -5583.119336 -30430.943730      0.011089                    
P 23 -20621.437007   1761.493879  17265.427018   -115.893375                    
V 23  14495.695955 -15387.748808  18912.383773      0.030819                    
P 24  18701.664712  14720.597248 -12355.030472    -12.749331                    
V 24 -15430.800348  -1656.130204 -25376.743167     -0.005286                    
P 25  14989.043498  12374.120068  17979.004659      2.426772                    
V 25   2907.934825  23067.871951 -17799.296376      0.029474                    
P 26   6539.872471 -20664.575906  15163.862660    202.447992                    
V 26   6681.081090  18428.526051  22399.579993      0.072299                    
P 27   8010.130934 -20294.790302 -15043.444675   -288.073485                    
V 27  15552.316608 -10993.357163  23655.579115     -0.102498                    
P 28 -12442.248294  11391.503108 -19972.229363    719.145153                    
V 28  -3461.851366 -26375.705446 -12386.905527     -0.031614                    
P 29  18769.895769   1437.328043  18701.523639    -99.470089                    
V 29 -18389.037047  15099.534477  17233.677728     -0.089635                    
P 30 -21541.036637   3588.665355 -15223.301948   -215.554112                    
V 30 -17214.195505  -9193.299324  21923.190201     -0.082877                    
P 31  12966.340798 -10612.632265  20665.572604    -41.026909                    
V 31  24284.644237   9956.199762  -9657.474740     -0.024255                    
P 32  20914.001434 -16056.776069  -2372.321662    276.211402                    
V 32   -335.407449   4365.260789 -31568.466370      0.078219                    
EOF
